ORBCOMM FM20            
1 25416U 98046D   25101.80099588  .00001869  00000+0  67139-3 0  9993
2 25416  44.9929 135.6239 0002845 277.2777  82.7747 14.37039978394758
ORBCOMM FM16            
1 25417U 98046E   25101.87436145  .00002949  00000+0  99855-3 0  9995
2 25417  44.9916 127.7048 0006259 306.2461  53.7808 14.38671371394926
ORBCOMM FM15            
1 25418U 98046F   25101.76477941  .00002443  00000+0  84087-3 0  9993
2 25418  44.9949 133.1725 0005765 304.2465  55.7837 14.38325850394853
ORBCOMM FM14            
1 25419U 98046G   25101.17398854  .00002507  00000+0  85605-3 0  9992
2 25419  44.9937 134.4014 0004922 293.3358  66.6972 14.38664572394789
ORBCOMM FM13            
1 25420U 98046H   25101.78690723  .00002143  00000+0  75608-3 0  9999
2 25420  44.9952 138.8333 0006952 292.0102  68.0007 14.37475053394810
ORBCOMM FM21            
1 25475U 98053A   25100.73603713  .00002410  00000+0  84966-3 0  9998
2 25475  45.0070 228.8811 0002620 224.5716 135.4921 14.37180496387543
ORBCOMM FM22            
1 25476U 98053B   25101.44600289  .00002842  00000+0  97393-3 0  9990
2 25476  45.0065 220.8997 0004584 235.9528 124.0886 14.38167286388024
ORBCOMM FM23            
1 25477U 98053C   25101.50948581  .00002633  00000+0  92084-3 0  9998
2 25477  45.0072 227.4321 0003706 229.2873 130.7653 14.37342706388118
